NORAD_CAT_ID,OBJECT_NAME,OBJECT_TYPE,EPOCH,MEAN_MOTION,ECCENTRICITY,INCLINATION,RA_OF_ASC_NODE,ARG_OF_PERICENTER,MEAN_ANOMALY,BSTAR,MEAN_MOTION_DOT,MEAN_MOTION_DDOT,TLE_LINE0,TLE_LINE1,TLE_LINE2,SEMIMAJOR_AXIS,PERIOD,APOGEE,PERIGEE,DECAYED
54775.0,STARLINK-5465,PAYLOAD,2024-04-28 16:25:36,15.08836031,0.0001356,53.2181,216.6158,94.3182,265.7965,-0.00010349,-1.934e-05,0.0,0 STARLINK-5465,1 54775U 22175T   24119.68444706 -.00001934  00000-0 -10349-3 0  9990,2 54775  53.2181 216.6158 0001356  94.3182 265.7965 15.08836031 77268,6917.893,95.438,540.696,538.819,0.0
54775.0,STARLINK-5465,PAYLOAD,2024-04-29 13:05:36,15.08835804,0.0001304,53.2174,212.7542,97.5899,262.5242,8.7075e-05,1.098e-05,0.0,0 STARLINK-5465,1 54775U 22175T   24120.54556662  .00001098  00000-0  87075-4 0  9992,2 54775  53.2174 212.7542 0001304  97.5899 262.5242 15.08835804 75232,6917.893,95.438,540.66,538.856,0.0
54775.0,STARLINK-5465,PAYLOAD,2024-04-30 12:56:24,15.0883138,0.000141,53.2197,208.2977,96.132,263.9833,0.00017933,2.567e-05,0.0,0 STARLINK-5465,1 54775U 22175T   24121.53917060  .00002567  00000-0  17933-3 0  9992,2 54775  53.2197 208.2977 0001410  96.1320 263.9833 15.08831380 77543,6917.907,95.438,540.747,538.796,0.0
54775.0,STARLINK-5465,PAYLOAD,2024-04-30 22:28:42,15.08844532,0.0001459,53.2193,206.5117,97.1265,262.9893,0.00016475,2.335e-05,0.0,0 STARLINK-5465,1 54775U 22175T   24121.93660205  .00002335  00000-0  16475-3 0  9995,2 54775  53.2193 206.5117 0001459  97.1265 262.9893 15.08844532 77603,6917.867,95.437,540.741,538.722,0.0
54775.0,STARLINK-5465,PAYLOAD,2024-05-01 22:19:29,15.08848956,0.0001442,53.2195,202.051,89.3837,270.7321,8.2603e-05,1.027e-05,0.0,0 STARLINK-5465,1 54775U 22175T   24122.93019711  .00001027  00000-0  82603-4 0  9990,2 54775  53.2195 202.0510 0001442  89.3837 270.7321 15.08848956 77756,6917.853,95.437,540.716,538.72,0.0
54775.0,STARLINK-5465,PAYLOAD,2024-05-02 12:37:58,15.08831145,0.0001393,53.2167,199.3736,89.0784,271.0368,-5.9137e-05,-1.229e-05,0.0,0 STARLINK-5465,1 54775U 22175T   24123.52637152 -.00001229  00000-0 -59137-4 0  9993,2 54775  53.2167 199.3736 0001393  89.0784 271.0368 15.08831145 75683,6917.907,95.438,540.736,538.809,0.0
54775.0,STARLINK-5465,PAYLOAD,2024-05-02 14:13:21,15.08831505,0.0001378,53.2165,199.0759,87.949,272.166,-5.7539e-05,-1.203e-05,0.0,0 STARLINK-5465,1 54775U 22175T   24123.59261146 -.00001203  00000-0 -57539-4 0  9992,2 54775  53.2165 199.0759 0001378  87.9490 272.1660 15.08831505 77855,6917.906,95.438,540.725,538.818,0.0
54775.0,STARLINK-5465,PAYLOAD,2024-05-02 22:10:16,15.08843299,0.0001465,53.2174,197.589,88.3092,271.8068,-2.0372e-05,-6.12e-06,0.0,0 STARLINK-5465,1 54775U 22175T   24123.92380261 -.00000612  00000-0 -20372-4 0  9997,2 54775  53.2174 197.5890 0001465  88.3092 271.8068 15.08843299 75741,6917.87,95.437,540.749,538.722,0.0
54775.0,STARLINK-5465,PAYLOAD,2024-05-03 12:28:44,15.08836831,0.0001495,53.2163,194.9133,88.1872,271.9292,0.0002618,3.881e-05,0.0,0 STARLINK-5465,1 54775U 22175T   24124.51995624  .00003881  00000-0  26180-3 0  9999,2 54775  53.2163 194.9133 0001495  88.1872 271.9292 15.08836831 77990,6917.89,95.438,540.789,538.721,0.0
54775.0,STARLINK-5465,PAYLOAD,2024-05-03 22:01:02,15.0884238,0.0001502,53.2164,193.1293,88.2125,271.9039,0.00028963,4.325e-05,0.0,0 STARLINK-5465,1 54775U 22175T   24124.91739401  .00004325  00000-0  28963-3 0  9997,2 54775  53.2164 193.1293 0001502  88.2125 271.9039 15.08842380 78053,6917.873,95.437,540.777,538.699,0.0
54775.0,STARLINK-5465,PAYLOAD,2024-05-04 04:22:36,15.08825651,0.0001648,53.2151,191.9399,91.3093,268.8088,6.9534e-05,8.18e-06,0.0,0 STARLINK-5465,1 54775U 22175T   24125.18237002  .00000818  00000-0  69534-4 0  9990,2 54775  53.2151 191.9399 0001648  91.3093 268.8088 15.08825651 75937,6917.924,95.438,540.929,538.649,0.0
54775.0,STARLINK-5465,PAYLOAD,2024-05-05 10:34:56,15.08846809,0.0001485,53.2163,186.2889,98.5803,261.5358,0.00028014,4.174e-05,0.0,0 STARLINK-5465,1 54775U 22175T   24126.44092828  .00004174  00000-0  28014-3 0  9991,2 54775  53.2163 186.2889 0001485  98.5803 261.5358 15.08846809 76128,6917.86,95.437,540.752,538.697,0.0
54775.0,STARLINK-5465,PAYLOAD,2024-05-06 10:25:42,15.08863491,0.0001501,53.2165,181.83,91.3541,268.7623,0.00073455,0.00011429,0.0,0 STARLINK-5465,1 54775U 22175T   24127.43452480  .00011429  00000-0  73455-3 0  9995,2 54775  53.2165 181.8300 0001501  91.3541 268.7623 15.08863491 78434,6917.809,95.436,540.712,538.635,0.0
54775.0,STARLINK-5465,PAYLOAD,2024-05-07 03:54:57,15.08853971,0.0001465,53.2162,178.5607,93.9026,266.2133,0.00023924,3.523e-05,0.0,0 STARLINK-5465,1 54775U 22175T   24128.16316078  .00003523  00000-0  23924-3 0  9990,2 54775  53.2162 178.5607 0001465  93.9026 266.2133 15.08853971 76382,6917.838,95.437,540.716,538.689,0.0
54775.0,STARLINK-5465,PAYLOAD,2024-05-07 10:16:30,15.08840441,0.0001255,53.2143,177.3652,84.8909,275.2226,-4.858e-05,-1.061e-05,0.0,0 STARLINK-5465,1 54775U 22175T   24128.42812548 -.00001061  00000-0 -48580-4 0  9995,2 54775  53.2143 177.3652 0001255  84.8909 275.2226 15.08840441 76420,6917.879,95.438,540.612,538.876,0.0
54775.0,STARLINK-5465,PAYLOAD,2024-05-08 10:07:17,15.08844754,0.000122,53.2154,172.9054,86.2025,273.9107,6.7929e-06,-1.8e-06,0.0,0 STARLINK-5465,1 54775U 22175T   24129.42172518 -.00000180  00000-0  67929-5 0  9991,2 54775  53.2154 172.9054 0001220  86.2025 273.9107 15.08844754 78736,6917.866,95.437,540.575,538.887,0.0
54775.0,STARLINK-5465,PAYLOAD,2024-05-08 19:39:35,15.08845852,0.0001236,53.2156,171.1211,84.0412,276.0721,3.2992e-05,2.37e-06,0.0,0 STARLINK-5465,1 54775U 22175T   24129.81916212  .00000237  00000-0  32992-4 0  9994,2 54775  53.2156 171.1211 0001236  84.0412 276.0721 15.08845852 76630,6917.863,95.437,540.583,538.872,0.0
54775.0,STARLINK-5465,PAYLOAD,2024-05-09 11:33:27,15.08837265,0.0001481,53.2173,168.1509,100.0474,260.0685,0.00014326,1.993e-05,0.0,0 STARLINK-5465,1 54775U 22175T   24130.48156749  .00001993  00000-0  14326-3 0  9990,2 54775  53.2173 168.1509 0001481 100.0474 260.0685 15.08837265 76736,6917.889,95.438,540.778,538.729,0.0
54775.0,STARLINK-5465,PAYLOAD,2024-05-10 11:24:14,15.08846401,0.0001512,53.2178,163.6897,91.8253,268.2912,0.00010234,1.341e-05,0.0,0 STARLINK-5465,1 54775U 22175T   24131.47516518  .00001341  00000-0  10234-3 0  9995,2 54775  53.2178 163.6897 0001512  91.8253 268.2912 15.08846401 79040,6917.861,95.437,540.772,538.68,0.0
54775.0,STARLINK-5465,PAYLOAD,2024-05-10 19:21:09,15.08853822,0.0001511,53.2178,162.2021,86.0347,274.0818,0.00015093,2.116e-05,0.0,0 STARLINK-5465,1 54775U 22175T   24131.80635815  .00002116  00000-0  15093-3 0  9993,2 54775  53.2178 162.2021 0001511  86.0347 274.0818 15.08853822 76933,6917.838,95.437,540.748,538.658,0.0
54775.0,STARLINK-5465,PAYLOAD,2024-05-11 19:11:54,15.08880901,0.0001433,53.2159,157.7425,93.3707,266.7449,0.00054176,8.354e-05,0.0,0 STARLINK-5465,1 54775U 22175T   24132.79993608  .00008354  00000-0  54176-3 0  9994,2 54775  53.2159 157.7425 0001433  93.3707 266.7449 15.08880901 77086,6917.755,95.435,540.612,538.629,0.0
54775.0,STARLINK-5465,PAYLOAD,2024-05-12 01:33:28,15.0887027,0.0005279,53.2159,156.5534,84.3199,275.8395,0.00043311,6.618e-05,0.0,0 STARLINK-5465,1 54775U 22175T   24133.06491301  .00006618  00000-0  43311-3 0  9998,2 54775  53.2159 156.5534 0005279  84.3199 275.8395 15.08870270 77125,6917.788,95.436,543.305,536.001,0.0
54775.0,STARLINK-5465,PAYLOAD,2024-05-12 11:05:48,15.0880619,0.0001591,53.2159,154.7674,113.8374,246.2785,-0.00070427,-0.00011469,0.0,0 STARLINK-5465,1 54775U 22175T   24133.46236954 -.00011469  00000-0 -70427-3 0  9993,2 54775  53.2159 154.7674 0001591 113.8374 246.2785 15.08806190 77187,6917.984,95.44,540.949,538.748,0.0
54775.0,STARLINK-5465,PAYLOAD,2024-05-12 19:02:44,15.08806679,0.0001564,53.2163,153.282,111.2888,248.8272,-0.00052028,-8.551e-05,0.0,0 STARLINK-5465,1 54775U 22175T   24133.79357616 -.00008551  00000-0 -52028-3 0  9993,2 54775  53.2163 153.2820 0001564 111.2888 248.8272 15.08806679 79397,6917.982,95.44,540.929,538.765,0.0
54775.0,STARLINK-5465,PAYLOAD,2024-05-13 04:35:04,15.0880958,8.6e-05,53.2142,151.4995,103.198,256.9108,-0.00026905,-4.563e-05,0.0,0 STARLINK-5465,1 54775U 22175T   24134.19102358 -.00004563  00000-0 -26905-3 0  9993,2 54775  53.2142 151.4995 0000860 103.1980 256.9108 15.08809580 77297,6917.973,95.439,540.433,539.243,0.0
54775.0,STARLINK-5465,PAYLOAD,2024-05-13 07:45:50,15.0882194,0.00017,53.2162,150.9025,113.0041,247.1131,-0.00011139,-2.06e-05,0.0,0 STARLINK-5465,1 54775U 22175T   24134.32350144 -.00002060  00000-0 -11139-3 0  9999,2 54775  53.2162 150.9025 0001700 113.0041 247.1131 15.08821940 77314,6917.936,95.439,540.977,538.625,0.0
54775.0,STARLINK-5465,PAYLOAD,2024-05-14 04:25:53,15.08820399,0.0001406,53.2151,147.0358,122.0274,238.0855,0.00065877,0.00010206,0.0,0 STARLINK-5465,1 54775U 22175T   24135.18464345  .00010206  00000-0  65877-3 0  9990,2 54775  53.2151 147.0358 0001406 122.0274 238.0855 15.08820399 77442,6917.94,95.439,540.778,538.833,0.0
54775.0,STARLINK-5465,PAYLOAD,2024-05-14 07:36:39,15.08829722,0.0001366,53.2151,146.4411,118.0783,242.0347,0.00079525,0.00012388,0.0,0 STARLINK-5465,1 54775U 22175T   24135.31712598  .00012388  00000-0  79525-3 0  9999,2 54775  53.2151 146.4411 0001366 118.0783 242.0347 15.08829722 79622,6917.912,95.438,540.722,538.832,0.0
54775.0,STARLINK-5465,PAYLOAD,2024-05-14 17:08:58,15.08841322,0.0001413,53.2163,144.6595,117.8523,242.2612,0.0007352,0.00011433,0.0,0 STARLINK-5465,1 54775U 22175T   24135.71456475  .00011433  00000-0  73520-3 0  9991,2 54775  53.2163 144.6595 0001413 117.8523 242.2612 15.08841322 79683,6917.876,95.437,540.719,538.764,0.0
54775.0,STARLINK-5465,PAYLOAD,2024-05-15 04:16:39,15.08856793,0.0001299,53.2161,142.5758,119.2981,240.8142,0.00069689,0.00010826,0.0,0 STARLINK-5465,1 54775U 22175T   24136.17823817  .00010826  00000-0  69689-3 0  9996,2 54775  53.2161 142.5758 0001299 119.2981 240.8142 15.08856793 77593,6917.829,95.436,540.593,538.795,0.0
